{
  "norad_id": 29506,
  "name": "SHIJIAN-6 02B (SJ-6 02B)",
  "history": [
    {
      "epoch": "2026-03-28T21:31:02.229312Z",
      "apogee_km": 572.3998978000591,
      "perigee_km": 554.6497907977136,
      "latitude_deg": 1.5561215614623332e-07,
      "longitude_deg": -31.58790827822919,
      "height_km": 558.14786249122,
      "semi_major_axis_km": 6941.661844298886,
      "eccentricity": 0.00127852,
      "inclination_deg": 97.7102,
      "raan_deg": 117.4818,
      "arg_perigee_deg": 341.8977,
      "mean_anomaly_deg": 18.179,
      "mean_motion_rev_day": 15.01092937
    },
    {
      "epoch": "2026-03-29T03:54:59.730912Z",
      "apogee_km": 572.3920398359451,
      "perigee_km": 554.6463898882712,
      "latitude_deg": -3.2158885945879166e-06,
      "longitude_deg": -127.57540794053891,
      "height_km": 558.1916089088784,
      "semi_major_axis_km": 6941.656214862108,
      "eccentricity": 0.0012782,
      "inclination_deg": 97.7102,
      "raan_deg": 117.7467,
      "arg_perigee_deg": 340.9439,
      "mean_anomaly_deg": 19.1305,
      "mean_motion_rev_day": 15.01094763
    },
    {
      "epoch": "2026-03-30T05:30:49.547232Z",
      "apogee_km": 572.3115660923913,
      "perigee_km": 554.6812056189947,
      "latitude_deg": 3.3019921994329926e-05,
      "longitude_deg": -151.52561859581206,
      "height_km": 558.4189863000922,
      "semi_major_axis_km": 6941.633385855693,
      "eccentricity": 0.0012699,
      "inclination_deg": 97.7101,
      "raan_deg": 118.8053,
      "arg_perigee_deg": 337.3795,
      "mean_anomaly_deg": 22.6868,
      "mean_motion_rev_day": 15.01102168
    },
    {
      "epoch": "2026-03-30T05:30:49.549824Z",
      "apogee_km": 572.319064637054,
      "perigee_km": 554.6738488879719,
      "latitude_deg": 2.3624386779373655e-05,
      "longitude_deg": -151.52562816037934,
      "height_km": 558.4132998436025,
      "semi_major_axis_km": 6941.633456762513,
      "eccentricity": 0.00127097,
      "inclination_deg": 97.7102,
      "raan_deg": 118.8053,
      "arg_perigee_deg": 337.361,
      "mean_anomaly_deg": 22.7052,
      "mean_motion_rev_day": 15.01102145
    },
    {
      "epoch": "2026-03-30T13:30:46.282752Z",
      "apogee_km": 572.3031119708485,
      "perigee_km": 554.6752687579883,
      "latitude_deg": -4.994270010034828e-05,
      "longitude_deg": 88.4901838751017,
      "height_km": 558.4813550877495,
      "semi_major_axis_km": 6941.626190364418,
      "eccentricity": 0.00126972,
      "inclination_deg": 97.71,
      "raan_deg": 119.136,
      "arg_perigee_deg": 336.2534,
      "mean_anomaly_deg": 23.8102,
      "mean_motion_rev_day": 15.01104502
    }
  ]
}